NORAD_CAT_ID,OBJECT_NAME,OBJECT_TYPE,EPOCH,MEAN_MOTION,ECCENTRICITY,INCLINATION,RA_OF_ASC_NODE,ARG_OF_PERICENTER,MEAN_ANOMALY,BSTAR,MEAN_MOTION_DOT,MEAN_MOTION_DDOT,TLE_LINE0,TLE_LINE1,TLE_LINE2,SEMIMAJOR_AXIS,PERIOD,APOGEE,PERIGEE,DECAYED
53037.0,STARLINK-4153,PAYLOAD,2023-09-01 17:37:31,15.08843642,0.0001323,53.2167,243.9609,89.6851,270.4292,8.6283e-05,1.086e-05,0.0,0 STARLINK-4153,1 53037U 22076BD  23244.73438684  .00001086  00000-0  86283-4 0  9999,2 53037  53.2167 243.9609 0001323  89.6851 270.4292 15.08843642 64707,6917.869,95.437,540.649,538.819,0.0
53037.0,STARLINK-4153,PAYLOAD,2023-09-02 06:20:35,15.08845529,0.0001453,53.2151,241.5806,97.3622,262.7535,7.1466e-05,8.5e-06,0.0,0 STARLINK-4153,1 53037U 22076BD  23245.26430499  .00000850  00000-0  71466-4 0  9999,2 53037  53.2151 241.5806 0001453  97.3622 262.7535 15.08845529 64327,6917.863,95.437,540.734,538.723,0.0
53037.0,STARLINK-4153,PAYLOAD,2023-09-03 09:22:09,15.08842085,0.00012,53.2167,236.5261,92.0343,268.0787,2.0692e-05,4.1e-07,0.0,0 STARLINK-4153,1 53037U 22076BD  23246.39038847  .00000041  00000-0  20692-4 0  9992,2 53037  53.2167 236.5261 0001200  92.0343 268.0787 15.08842085 64956,6917.874,95.437,540.569,538.909,0.0
53037.0,STARLINK-4153,PAYLOAD,2023-09-03 23:40:38,15.08833204,0.000117,53.2157,233.8502,91.0753,269.0373,-1.8342e-05,-5.8e-06,0.0,0 STARLINK-4153,1 53037U 22076BD  23246.98655592 -.00000580  00000-0 -18342-4 0  9998,2 53037  53.2157 233.8502 0001170  91.0753 269.0373 15.08833204 65049,6917.901,95.438,540.576,538.957,0.0
53037.0,STARLINK-4153,PAYLOAD,2023-09-04 07:37:33,15.08843165,0.0001197,53.2161,232.3626,88.9029,271.21,-0.00012291,-2.244e-05,0.0,0 STARLINK-4153,1 53037U 22076BD  23247.31775397 -.00002244  00000-0 -12291-3 0  9997,2 53037  53.2161 232.3626 0001197  88.9029 271.2100 15.08843165 64639,6917.871,95.437,540.564,538.908,0.0
53037.0,STARLINK-4153,PAYLOAD,2023-09-05 09:03:44,15.08839618,0.0001172,53.2168,227.6049,89.9177,270.1949,7.2215e-05,8.62e-06,0.0,0 STARLINK-4153,1 53037U 22076BD  23248.37759294  .00000862  00000-0  72215-4 0  9997,2 53037  53.2168 227.6049 0001172  89.9177 270.1949 15.08839618 65256,6917.882,95.438,540.557,538.936,0.0
53037.0,STARLINK-4153,PAYLOAD,2023-09-06 07:19:08,15.08832921,0.0001181,53.2174,223.4427,92.9198,267.1929,4.9903e-05,5.06e-06,0.0,0 STARLINK-4153,1 53037U 22076BD  23249.30496110  .00000506  00000-0  49903-4 0  9999,2 53037  53.2174 223.4427 0001181  92.9198 267.1929 15.08832921 65393,6917.902,95.438,540.584,538.95,0.0
53037.0,STARLINK-4153,PAYLOAD,2023-09-06 21:37:37,15.0883094,0.0001592,53.2168,220.7678,92.3907,267.7267,-2.7748e-05,-7.29e-06,0.0,0 STARLINK-4153,1 53037U 22076BD  23249.90112815 -.00000729  00000-0 -27748-4 0  9994,2 53037  53.2168 220.7678 0001592  92.3907 267.7267 15.08830940 65022,6917.908,95.438,540.874,538.672,0.0
53037.0,STARLINK-4153,PAYLOAD,2023-09-07 08:45:20,15.08821621,0.0001489,53.2168,218.6854,89.7421,270.3741,-0.00010246,-1.917e-05,0.0,0 STARLINK-4153,1 53037U 22076BD  23250.36482074 -.00001917  00000-0 -10246-3 0  9997,2 53037  53.2168 218.6854 0001489  89.7421 270.3741 15.08821621 65551,6917.937,95.439,540.832,538.771,0.0
53037.0,STARLINK-4153,PAYLOAD,2023-09-07 21:28:25,15.08830565,0.0001334,53.2187,216.3068,88.1527,271.9618,1.5198e-05,-4.6e-07,0.0,0 STARLINK-4153,1 53037U 22076BD  23250.89473462 -.00000046  00000-0  15198-4 0  9999,2 53037  53.2187 216.3068 0001334  88.1527 271.9618 15.08830565 65178,6917.909,95.438,540.697,538.851,0.0
53037.0,STARLINK-4153,PAYLOAD,2023-09-08 03:49:57,15.08834784,0.0001192,53.2174,215.118,91.0758,269.0371,5.7553e-05,6.28e-06,0.0,0 STARLINK-4153,1 53037U 22076BD  23251.15969117  .00000628  00000-0  57553-4 0  9992,2 53037  53.2174 215.1180 0001192  91.0758 269.0371 15.08834784 65673,6917.896,95.438,540.586,538.937,0.0
53037.0,STARLINK-4153,PAYLOAD,2023-09-08 14:57:38,15.08855885,0.0001043,53.2174,213.036,92.2055,267.9056,-4.5123e-06,-3.6e-06,0.0,0 STARLINK-4153,1 53037U 22076BD  23251.62335920 -.00000360  00000-0 -45123-5 0  9999,2 53037  53.2174 213.0360 0001043  92.2055 267.9056 15.08855885 65748,6917.832,95.437,540.418,538.975,0.0
53037.0,STARLINK-4153,PAYLOAD,2023-09-09 06:51:29,15.08853889,0.0001169,53.2171,210.0616,92.4089,267.7037,0.00032394,4.873e-05,0.0,0 STARLINK-4153,1 53037U 22076BD  23252.28575393  .00004873  00000-0  32394-3 0  9997,2 53037  53.2171 210.0616 0001169  92.4089 267.7037 15.08853889 65383,6917.838,95.437,540.512,538.894,0.0
53037.0,STARLINK-4153,PAYLOAD,2023-09-09 14:48:25,15.08850881,0.0001577,53.2178,208.5766,66.7126,293.4032,0.00018831,2.711e-05,0.0,0 STARLINK-4153,1 53037U 22076BD  23252.61696037  .00002711  00000-0  18831-3 0  9992,2 53037  53.2178 208.5766 0001577  66.7126 293.4032 15.08850881 65893,6917.847,95.437,540.803,538.621,0.0
53037.0,STARLINK-4153,PAYLOAD,2023-09-10 03:31:30,15.0884734,0.0001337,53.2183,206.1948,94.2937,265.8208,2.1652e-05,5.7e-07,0.0,0 STARLINK-4153,1 53037U 22076BD  23253.14688399  .00000057  00000-0  21652-4 0  9990,2 53037  53.2183 206.1948 0001337  94.2937 265.8208 15.08847340 65978,6917.858,95.437,540.648,538.798,0.0
53037.0,STARLINK-4153,PAYLOAD,2023-09-10 06:42:16,15.08847718,0.000136,53.2183,205.5995,95.3236,264.7911,1.9573e-05,2.4e-07,0.0,0 STARLINK-4153,1 53037U 22076BD  23253.27936279  .00000024  00000-0  19573-4 0  9990,2 53037  53.2183 205.5995 0001360  95.3236 264.7911 15.08847718 65533,6917.857,95.437,540.663,538.781,0.0
53037.0,STARLINK-4153,PAYLOAD,2023-09-11 06:33:03,15.08848748,0.0001311,53.2185,201.1387,99.3077,260.8064,-9.8208e-05,-1.851e-05,0.0,0 STARLINK-4153,1 53037U 22076BD  23254.27296126 -.00001851  00000-0 -98208-4 0  9994,2 53037  53.2185 201.1387 0001311  99.3077 260.8064 15.08848748 66143,6917.854,95.437,540.626,538.812,0.0
53037.0,STARLINK-4153,PAYLOAD,2023-09-12 06:23:50,15.08850367,0.0001298,53.2181,196.6795,88.4026,271.7115,0.00012714,1.737e-05,0.0,0 STARLINK-4153,1 53037U 22076BD  23255.26655342  .00001737  00000-0  12714-3 0  9991,2 53037  53.2181 196.6795 0001298  88.4026 271.7115 15.08850367 65830,6917.849,95.437,540.612,538.816,0.0
53037.0,STARLINK-4153,PAYLOAD,2023-09-13 03:03:51,15.08840173,0.0001276,53.2173,192.8186,96.9627,263.151,8.4989e-05,1.065e-05,0.0,0 STARLINK-4153,1 53037U 22076BD  23256.12768430  .00001065  00000-0  84989-4 0  9998,2 53037  53.2173 192.8186 0001276  96.9627 263.1510 15.08840173 66424,6917.88,95.438,540.628,538.862,0.0
53037.0,STARLINK-4153,PAYLOAD,2023-09-13 04:39:14,15.08846594,0.000138,53.2175,192.5192,92.3579,267.7571,0.00013847,1.917e-05,0.0,0 STARLINK-4153,1 53037U 22076BD  23256.19391954  .00001917  00000-0  13847-3 0  9998,2 53037  53.2175 192.5192 0001380  92.3579 267.7571 15.08846594 66433,6917.86,95.437,540.68,538.771,0.0
53037.0,STARLINK-4153,PAYLOAD,2023-09-14 02:54:38,15.08842426,0.0001472,53.2179,188.3539,82.2843,277.8316,-2.9954e-05,-7.65e-06,0.0,0 STARLINK-4153,1 53037U 22076BD  23257.12128054 -.00000765  00000-0 -29954-4 0  9990,2 53037  53.2179 188.3539 0001472  82.2843 277.8316 15.08842426 66573,6917.873,95.437,540.756,538.72,0.0
53037.0,STARLINK-4153,PAYLOAD,2023-09-14 04:30:01,15.08843346,0.0001593,53.2187,188.0578,90.8576,269.2599,1.4116e-05,-6.3e-07,0.0,0 STARLINK-4153,1 53037U 22076BD  23257.18752086 -.00000063  00000-0  14116-4 0  9998,2 53037  53.2187 188.0578 0001593  90.8576 269.2599 15.08843346 66125,6917.87,95.437,540.837,538.633,0.0
53037.0,STARLINK-4153,PAYLOAD,2023-09-15 04:20:49,15.08837169,0.0001496,53.2181,183.5973,90.3034,269.8129,6.2679e-05,7.1e-06,0.0,0 STARLINK-4153,1 53037U 22076BD  23258.18112852  .00000710  00000-0  62679-4 0  9995,2 53037  53.2181 183.5973 0001496  90.3034 269.8129 15.08837169 66732,6917.889,95.438,540.789,538.719,0.0
53037.0,STARLINK-4153,PAYLOAD,2023-09-16 02:36:12,15.08848982,0.0001381,53.218,179.434,92.4065,267.7085,0.00013612,1.88e-05,0.0,0 STARLINK-4153,1 53037U 22076BD  23259.10848239  .00001880  00000-0  13612-3 0  9994,2 53037  53.2180 179.4340 0001381  92.4065 267.7085 15.08848982 66871,6917.853,95.437,540.673,538.763,0.0
53037.0,STARLINK-4153,PAYLOAD,2023-09-16 04:11:35,15.08852087,0.0001351,53.2179,179.1351,96.5119,263.6027,0.00016296,2.307e-05,0.0,0 STARLINK-4153,1 53037U 22076BD  23259.17472001  .00002307  00000-0  16296-3 0  9997,2 53037  53.2179 179.1351 0001351  96.5119 263.6027 15.08852087 66423,6917.843,95.437,540.643,538.774,0.0
53037.0,STARLINK-4153,PAYLOAD,2023-09-16 18:30:05,15.08838599,0.0001828,53.217,176.4617,79.2715,280.8483,9.5353e-05,1.23e-05,0.0,0 STARLINK-4153,1 53037U 22076BD  23259.77089242  .00001230  00000-0  95353-4 0  9990,2 53037  53.2170 176.4617 0001828  79.2715 280.8483 15.08838599 66977,6917.885,95.438,541.014,538.485,0.0
53037.0,STARLINK-4153,PAYLOAD,2023-09-17 04:02:23,15.08843732,0.0001388,53.217,174.6761,86.9745,273.1406,0.00017514,2.501e-05,0.0,0 STARLINK-4153,1 53037U 22076BD  23260.16833015  .00002501  00000-0  17514-3 0  9994,2 53037  53.2170 174.6761 0001388  86.9745 273.1406 15.08843732 66577,6917.869,95.437,540.694,538.774,0.0
53037.0,STARLINK-4153,PAYLOAD,2023-09-18 00:42:24,15.08844801,0.0001617,53.2178,170.8082,104.197,255.9202,0.00071007,0.00011032,0.0,0 STARLINK-4153,1 53037U 22076BD  23261.02944926  .00011032  00000-0  71007-3 0  9990,2 53037  53.2178 170.8082 0001617 104.1970 255.9202 15.08844801 67163,6917.866,95.437,540.849,538.612,0.0
53037.0,STARLINK-4153,PAYLOAD,2023-09-18 03:53:10,15.08857486,0.0001484,53.2176,170.2135,94.6882,265.428,0.00036081,5.462e-05,0.0,0 STARLINK-4153,1 53037U 22076BD  23261.16192209  .00005462  00000-0  36081-3 0  9997,2 53037  53.2176 170.2135 0001484  94.6882 265.4280 15.08857486 67188,6917.827,95.436,540.719,538.665,0.0
53037.0,STARLINK-4153,PAYLOAD,2023-09-18 18:11:38,15.08840978,0.0001443,53.2168,167.539,85.9223,274.1934,4.6711e-05,4.56e-06,0.0,0 STARLINK-4153,1 53037U 22076BD  23261.75808849  .00000456  00000-0  46711-4 0  9996,2 53037  53.2168 167.5390 0001443  85.9223 274.1934 15.08840978 67279,6917.877,95.437,540.741,538.744,0.0
